{
    "week": 295,
    "satellites": [
        {
            "Name": "BEIDOU-2 G6 (C02)",
            "Line1": "1 38953U 12059A   24337.53397706 -.00000151  00000+0  00000+0 0  9990",
            "Line2": "2 38953   2.9889  79.1253 0007464 290.9757 338.0615  1.00272274 44271",
            "SatelliteNumber": "38953",
            "Classification": "U",
            "LaunchYear": "12",
            "LaunchNumber": "059",
            "PieceOfLaunch": "A",
            "EpochYear": "24",
            "EpochDay": 337.53397706,
            "FirstDerivativeMeanMotion": -1.51e-06,
            "SecondDerivativeMeanMotion": "00000+0",
            "BSTAR": "00000+0",
            "SetNumber": "999",
            "Inclination": 2.9889,
            "RAAN": 79.1253,
            "Eccentricity": 0.0007464,
            "ArgumentOfPerigee": 290.9757,
            "MeanAnomaly": 338.0615,
            "MeanMotion": 1.00272274,
            "RevolutionNumber": "4427"
        },
        {
            "Name": "BEIDOU-3S IGSO-1S (C31)",
            "Line1": "1 40549U 15019A   24336.84526388 -.00000183  00000+0  00000+0 0  9991",
            "Line2": "2 40549  50.2637 302.2047 0034952 198.9368 330.8121  1.00267302 35436",
            "SatelliteNumber": "40549",
            "Classification": "U",
            "LaunchYear": "15",
            "LaunchNumber": "019",
            "PieceOfLaunch": "A",
            "EpochYear": "24",
            "EpochDay": 336.84526388,
            "FirstDerivativeMeanMotion": -1.83e-06,
            "SecondDerivativeMeanMotion": "00000+0",
            "BSTAR": "00000+0",
            "SetNumber": "999",
            "Inclination": 50.2637,
            "RAAN": 302.2047,
            "Eccentricity": 0.0034952,
            "ArgumentOfPerigee": 198.9368,
            "MeanAnomaly": 330.8121,
            "MeanMotion": 1.00267302,
            "RevolutionNumber": "3543"
        },
        {
            "Name": "BEIDOU-3S M2S (C58)",
            "Line1": "1 40748U 15037A   24337.12991793 -.00000058  00000+0  00000+0 0  9991",
            "Line2": "2 40748  55.3525 321.3168 0012983 261.5412  98.3103  1.86229156 63652",
            "SatelliteNumber": "40748",
            "Classification": "U",
            "LaunchYear": "15",
            "LaunchNumber": "037",
            "PieceOfLaunch": "A",
            "EpochYear": "24",
            "EpochDay": 337.12991793,
            "FirstDerivativeMeanMotion": -5.8e-07,
            "SecondDerivativeMeanMotion": "00000+0",
            "BSTAR": "00000+0",
            "SetNumber": "999",
            "Inclination": 55.3525,
            "RAAN": 321.3168,
            "Eccentricity": 0.0012983,
            "ArgumentOfPerigee": 261.5412,
            "MeanAnomaly": 98.3103,
            "MeanMotion": 1.86229156,
            "RevolutionNumber": "6365"
        },
        {
            "Name": "BEIDOU-3S M1S (C57)",
            "Line1": "1 40749U 15037B   24337.40323636 -.00000057  00000+0  00000+0 0  9997",
            "Line2": "2 40749  55.3550 321.2941 0004375 323.0447  36.9239  1.86227580 63665",
            "SatelliteNumber": "40749",
            "Classification": "U",
            "LaunchYear": "15",
            "LaunchNumber": "037",
            "PieceOfLaunch": "B",
            "EpochYear": "24",
            "EpochDay": 337.40323636,
            "FirstDerivativeMeanMotion": -5.7e-07,
            "SecondDerivativeMeanMotion": "00000+0",
            "BSTAR": "00000+0",
            "SetNumber": "999",
            "Inclination": 55.355,
            "RAAN": 321.2941,
            "Eccentricity": 0.0004375,
            "ArgumentOfPerigee": 323.0447,
            "MeanAnomaly": 36.9239,
            "MeanMotion": 1.8622758,
            "RevolutionNumber": "6366"
        },
        {
            "Name": "BEIDOU-3S IGSO-2S (C56)",
            "Line1": "1 40938U 15053A   24337.60010878 -.00000130  00000+0  00000+0 0  9990",
            "Line2": "2 40938  50.0974 265.4367 0051533 189.2971 289.5995  1.00267585 33724",
            "SatelliteNumber": "40938",
            "Classification": "U",
            "LaunchYear": "15",
            "LaunchNumber": "053",
            "PieceOfLaunch": "A",
            "EpochYear": "24",
            "EpochDay": 337.60010878,
            "FirstDerivativeMeanMotion": -1.3e-06,
            "SecondDerivativeMeanMotion": "00000+0",
            "BSTAR": "00000+0",
            "SetNumber": "999",
            "Inclination": 50.0974,
            "RAAN": 265.4367,
            "Eccentricity": 0.0051533,
            "ArgumentOfPerigee": 189.2971,
            "MeanAnomaly": 289.5995,
            "MeanMotion": 1.00267585,
            "RevolutionNumber": "3372"
        },
        {
            "Name": "BEIDOU-2 IGSO-6 (C13)",
            "Line1": "1 41434U 16021A   24337.15555022 -.00000163  00000+0  00000+0 0  9999",
            "Line2": "2 41434  59.4258  43.6631 0055337 225.5731 314.9415  1.00282430 31845",
            "SatelliteNumber": "41434",
            "Classification": "U",
            "LaunchYear": "16",
            "LaunchNumber": "021",
            "PieceOfLaunch": "A",
            "EpochYear": "24",
            "EpochDay": 337.15555022,
            "FirstDerivativeMeanMotion": -1.63e-06,
            "SecondDerivativeMeanMotion": "00000+0",
            "BSTAR": "00000+0",
            "SetNumber": "999",
            "Inclination": 59.4258,
            "RAAN": 43.6631,
            "Eccentricity": 0.0055337,
            "ArgumentOfPerigee": 225.5731,
            "MeanAnomaly": 314.9415,
            "MeanMotion": 1.0028243,
            "RevolutionNumber": "3184"
        },
        {
            "Name": "BEIDOU-2 G7 (C03)",
            "Line1": "1 41586U 16037A   24337.75369803 -.00000329  00000+0  00000+0 0  9994",
            "Line2": "2 41586   1.7827  67.2590 0007494 345.1201  41.5965  1.00274468 31152",
            "SatelliteNumber": "41586",
            "Classification": "U",
            "LaunchYear": "16",
            "LaunchNumber": "037",
            "PieceOfLaunch": "A",
            "EpochYear": "24",
            "EpochDay": 337.75369803,
            "FirstDerivativeMeanMotion": -3.29e-06,
            "SecondDerivativeMeanMotion": "00000+0",
            "BSTAR": "00000+0",
            "SetNumber": "999",
            "Inclination": 1.7827,
            "RAAN": 67.259,
            "Eccentricity": 0.0007494,
            "ArgumentOfPerigee": 345.1201,
            "MeanAnomaly": 41.5965,
            "MeanMotion": 1.00274468,
            "RevolutionNumber": "3115"
        },
        {
            "Name": "BEIDOU-3 M1 (C19)",
            "Line1": "1 43001U 17069A   24336.94173450 -.00000021  00000+0  00000+0 0  9994",
            "Line2": "2 43001  56.2020  81.6825 0008537 296.3718  63.5291  1.86231250 48134",
            "SatelliteNumber": "43001",
            "Classification": "U",
            "LaunchYear": "17",
            "LaunchNumber": "069",
            "PieceOfLaunch": "A",
            "EpochYear": "24",
            "EpochDay": 336.9417345,
            "FirstDerivativeMeanMotion": -2.1e-07,
            "SecondDerivativeMeanMotion": "00000+0",
            "BSTAR": "00000+0",
            "SetNumber": "999",
            "Inclination": 56.202,
            "RAAN": 81.6825,
            "Eccentricity": 0.0008537,
            "ArgumentOfPerigee": 296.3718,
            "MeanAnomaly": 63.5291,
            "MeanMotion": 1.8623125,
            "RevolutionNumber": "4813"
        },
        {
            "Name": "BEIDOU-3 M2 (C20)",
            "Line1": "1 43002U 17069B   24337.41629795 -.00000017  00000+0  00000+0 0  9991",
            "Line2": "2 43002  56.2018  81.7022 0005918 325.8352  34.1173  1.86230912 48131",
            "SatelliteNumber": "43002",
            "Classification": "U",
            "LaunchYear": "17",
            "LaunchNumber": "069",
            "PieceOfLaunch": "B",
            "EpochYear": "24",
            "EpochDay": 337.41629795,
            "FirstDerivativeMeanMotion": -1.7e-07,
            "SecondDerivativeMeanMotion": "00000+0",
            "BSTAR": "00000+0",
            "SetNumber": "999",
            "Inclination": 56.2018,
            "RAAN": 81.7022,
            "Eccentricity": 0.0005918,
            "ArgumentOfPerigee": 325.8352,
            "MeanAnomaly": 34.1173,
            "MeanMotion": 1.86230912,
            "RevolutionNumber": "4813"
        },
        {
            "Name": "BEIDOU-3 M7 (C27)",
            "Line1": "1 43107U 18003A   24337.16386463 -.00000059  00000+0  00000+0 0  9996",
            "Line2": "2 43107  54.8110 321.8327 0002457  58.4840 301.5397  1.86232437 46889",
            "SatelliteNumber": "43107",
            "Classification": "U",
            "LaunchYear": "18",
            "LaunchNumber": "003",
            "PieceOfLaunch": "A",
            "EpochYear": "24",
            "EpochDay": 337.16386463,
            "FirstDerivativeMeanMotion": -5.9e-07,
            "SecondDerivativeMeanMotion": "00000+0",
            "BSTAR": "00000+0",
            "SetNumber": "999",
            "Inclination": 54.811,
            "RAAN": 321.8327,
            "Eccentricity": 0.0002457,
            "ArgumentOfPerigee": 58.484,
            "MeanAnomaly": 301.5397,
            "MeanMotion": 1.86232437,
            "RevolutionNumber": "4688"
        }
    ]
}